[{"OBJECT_NAME":"STARLINK-5232","OBJECT_ID":"2023-021AZ","EPOCH":"2026-03-09T17:14:54.333024","MEAN_MOTION":14.98347429,"ECCENTRICITY":0.00033761,"INCLINATION":70.0008,"RA_OF_ASC_NODE":164.1943,"ARG_OF_PERICENTER":275.1782,"MEAN_ANOMALY":84.8992,"EPHEMERIS_TYPE":0,"CLASSIFICATION_TYPE":"U","NORAD_CAT_ID":55675,"ELEMENT_SET_NO":999,"REV_AT_EPOCH":16929,"BSTAR":0.000156189,"MEAN_MOTION_DOT":1.772e-5,"MEAN_MOTION_DDOT":0},{"OBJECT_NAME":"ICEYE-X39","OBJECT_ID":"2024-149CG","EPOCH":"2026-03-09T17:17:30.183072","MEAN_MOTION":14.99225125,"ECCENTRICITY":0.0005274,"INCLINATION":97.6853,"RA_OF_ASC_NODE":147.0953,"ARG_OF_PERICENTER":52.5538,"MEAN_ANOMALY":307.6164,"EPHEMERIS_TYPE":0,"CLASSIFICATION_TYPE":"U","NORAD_CAT_ID":60546,"ELEMENT_SET_NO":999,"REV_AT_EPOCH":8521,"BSTAR":0.00029320082,"MEAN_MOTION_DOT":3.515e-5,"MEAN_MOTION_DDOT":0}]
