STARLINK-5232           
1 55675U 23021AZ  26068.71868441  .00001772  00000+0  15619-3 0  9998
2 55675  70.0008 164.1943 0003376 275.1782  84.8992 14.98347429169292
ICEYE-X39               
1 60546U 24149CG  26068.72048823  .00003515  00000+0  29320-3 0  9999
2 60546  97.6853 147.0953 0005274  52.5538 307.6164 14.99225125 85219
